ONEWEB-0324             
1 49193U 21083H   22078.91668981  .00039555  00000+0  99893-1 0  9992
2 49193  87.9046 283.5743 0001321  71.3293 342.0841 13.18666785  3282
ONEWEB-0325             
1 49194U 21083J   22078.91668981  .00039326  00000+0  99312-1 0  9995
2 49194  87.9044 283.4617 0002708  78.8163 319.7837 13.18668859  3299
ONEWEB-0326             
1 49195U 21083K   22078.91668981  .00038606  00000+0  97504-1 0  9997
2 49195  87.9049 283.5566 0001709  74.3646 272.8077 13.18667294  3305
ONEWEB-0327             
1 49196U 21083L   22078.91668981  .00039736  00000+0  10036+0 0  9996
2 49196  87.9058 283.5170 0000859  51.9583   8.8166 13.18659556  3312
ONEWEB-0328             
1 49197U 21083M   22078.91668981  .00000014  00000+0  00000+0 0  9994
2 49197  87.8988 268.2073 0019179  31.1893  41.9468 13.40619365  3373
ONEWEB-0331             
1 49198U 21083N   22078.91668981  .00038799  00000+0  97990-1 0  9992
2 49198  87.9060 283.5621 0001427  76.3952 292.8172 13.18667317  3317
ONEWEB-0333             
1 49199U 21083P   22078.91668981  .00000014  00000+0  00000+0 0  9996
2 49199  87.8996 268.1890 0017953  26.8607 349.4192 13.40630312  3388
ONEWEB-0334             
1 49200U 21083Q   22078.91668981  .00056443  00000+0  58468-2 0  9990
2 49200  87.1973 262.1557 0000448 325.4654 356.0946 14.89763214  3567
ONEWEB-0335             
1 49201U 21083R   22078.91668981  .00000014  00000+0  00000+0 0  9990
2 49201  87.8674 268.1683 0021414  16.1125  37.5400 13.52569658  3417
ONEWEB-0336             
1 49202U 21083S   22078.91668981  .00000014  00000+0  00000+0 0  9991
2 49202  87.8812 268.1727 0019036  11.2827 290.2067 13.48207215  3390
ONEWEB-0337             
1 49203U 21083T   22078.91668981  .00000014  00000+0  00000+0 0  9992
2 49203  87.8864 268.1274 0021336  13.3658 309.6943 13.47548225  3392
ONEWEB-0338             
1 49204U 21083U   22078.91668981  .00060803  00000+0  62927-2 0  9994
2 49204  87.2032 262.2934 0002135  18.9922 199.6791 14.89775303  3544
ONEWEB-0339             
1 49205U 21083V   22078.91668981  .00000014  00000+0  00000+0 0  9994
2 49205  87.9027 268.2053 0019359  17.7210 134.3628 13.40406867  3375
ONEWEB-0340             
1 49206U 21083W   22078.91668981  .00039864  00000+0  10067+0 0  9994
2 49206  87.9047 283.5668 0001761  80.1543 347.9873 13.18666596  3287
ONEWEB-0341             
1 49207U 21083X   22078.91668981  .00039202  00000+0  99009-1 0  9996
2 49207  87.9069 283.4649 0002675  68.8043 322.6133 13.18663054  3312
ONEWEB-0342             
1 49208U 21083Y   22078.91668981  .00055654  00000+0  57620-2 0  9990
2 49208  87.1992 262.2047 0002322  15.8349   7.8346 14.89788298  3558
ONEWEB-0343             
1 49209U 21083Z   22078.91668981  .00039437  00000+0  99592-1 0  9995
2 49209  87.9060 283.5175 0003106  75.1304 330.9501 13.18667324  3293
ONEWEB-0344             
1 49210U 21083AA  22078.91668981  .00000014  00000+0  00000+0 0  9990
2 49210  87.8902 268.1659 0020063  11.5558 132.9785 13.45646198  3370
ONEWEB-0345             
1 49211U 21083AB  22078.91668981  .00000014  00000+0  00000+0 0  9991
2 49211  87.8880 268.1885 0020593  13.1783  75.0392 13.48261699  3398
ONEWEB-0346             
1 49212U 21083AC  22078.91668981  .00038924  00000+0  98311-1 0  9997
2 49212  87.9060 283.5117 0001241  70.8913 305.7917 13.18663255  3312
ONEWEB-0348             
1 49213U 21083AD  22078.91668981  .00056068  00000+0  58071-2 0  9997
2 49213  87.2018 262.2643 0001537  13.6428 329.5454 14.89770704  3565
ONEWEB-0350             
1 49214U 21083AE  22078.91668981  .00000014  00000+0  00000+0 0  9994
2 49214  87.9169 268.2222 0016346  20.2891  27.4100 13.49475006  3396
ONEWEB-0351             
1 49215U 21083AF  22078.91668981  .00058230  00000+0  60298-2 0  9996
2 49215  87.1948 262.1063 0000798  19.7853  91.1476 14.89767583  3578
ONEWEB-0352             
1 49216U 21083AG  22078.91668981  .00000014  00000+0  00000+0 0  9996
2 49216  88.0080 268.1918 0019855  11.2637 269.1170 13.53034319  3440
ONEWEB-0354             
1 49217U 21083AH  22078.91668981  .00056648  00000+0  58654-2 0  9992
2 49217  87.2002 262.2167 0001440  42.0498 319.3028 14.89780061  3548
ONEWEB-0355             
1 49218U 21083AJ  22078.91668981  .00000014  00000+0  00000+0 0  9998
2 49218  87.8989 268.1745 0017365  22.9501 105.3379 13.40896699  3386
ONEWEB-0357             
1 49219U 21083AK  22078.91668981  .00057268  00000+0  59285-2 0  9994
2 49219  87.1999 262.2142 0002496  14.8124 284.1832 14.89783110  3564
ONEWEB-0332             
1 49279U 21090A   22078.91668981 -.00931500  00000+0 -17202+0 0  9990
2 49279  87.6358 239.3290 0005945 107.5154 279.9676 14.68750158  3558
ONEWEB-0347             
1 49280U 21090B   22078.91668981 -.00919496  00000+0 -16853+0 0  9993
2 49280  87.6349 239.3064 0003778  88.1360 338.9214 14.69055079  3548
ONEWEB-0349             
1 49281U 21090C   22078.91668981  .00023555  00000+0  23658-2 0  9998
2 49281  87.2047 238.0553 0005128  93.4921 258.7776 14.91159795  3549
ONEWEB-0353             
1 49282U 21090D   22078.91668981 -.00935397  00000+0 -17277+0 0  9994
2 49282  87.6408 239.3612 0006229  87.5964 282.1886 14.68753468  3543
ONEWEB-0356             
1 49283U 21090E   22078.91668981  .00025812  00000+0  25941-2 0  9995
2 49283  87.2038 238.0598 0004669 100.6954  16.3845 14.91127211  3549
ONEWEB-0358             
1 49284U 21090F   22078.91668981  .00025937  00000+0  27635-2 0  9996
2 49284  87.5171 239.2733 0004252 102.6419 227.2883 14.88775143  3545
ONEWEB-0359             
1 49285U 21090G   22078.91668981  .00026745  00000+0  28628-2 0  9998
2 49285  87.5192 239.2567 0004372  94.4870 315.9165 14.88584195  3550
ONEWEB-0360             
1 49286U 21090H   22078.91668981  .00025566  00000+0  25687-2 0  9991
2 49286  87.2047 238.0764 0007454 115.3600 340.6614 14.91127109  3568
ONEWEB-0361             
1 49287U 21090J   22078.91668981  .00025242  00000+0  25351-2 0  9991
2 49287  87.2044 238.0646 0005023 102.0305  89.9311 14.91156241  3555
ONEWEB-0362             
1 49288U 21090K   22078.91668981  .00038494  00000+0  95743-1 0  9996
2 49288  87.9126 253.0806 0001771 110.9603  77.0151 13.19705364  3290
ONEWEB-0363             
1 49289U 21090L   22078.91668981  .00025296  00000+0  25428-2 0  9997
2 49289  87.2061 238.1077 0004202  78.0896 356.4632 14.91122173  3577
ONEWEB-0364             
1 49290U 21090M   22078.91668981 -.00972719  00000+0 -18016+0 0  9994
2 49290  87.6405 239.4392 0003953  90.3934  27.3890 14.68276491  3578
ONEWEB-0365             
1 49291U 21090N   22078.91668981  .00037894  00000+0  94257-1 0  9992
2 49291  87.9132 253.0594 0001850  90.9384  67.6992 13.19705156  3293
ONEWEB-0366             
1 49292U 21090P   22078.91668981 -.00928511  00000+0 -17113+0 0  9994
2 49292  87.6419 239.3852 0005344 100.7314 228.3845 14.68831191  3554
ONEWEB-0367             
1 49293U 21090Q   22078.91668981  .00025072  00000+0  25170-2 0  9998
2 49293  87.2083 238.1471 0006502 113.0792 305.1728 14.91165902  3556
ONEWEB-0368             
1 49294U 21090R   22078.91668981 -.00929754  00000+0 -17129+0 0  9993
2 49294  87.6477 239.4718 0005523 110.1450  89.2644 14.68851851  3553
ONEWEB-0369             
1 49295U 21090S   22078.91668981  .00038162  00000+0  94920-1 0  9992
2 49295  87.9140 253.0129 0001782 103.9703  69.3210 13.19705902  3284
ONEWEB-0370             
1 49296U 21090T   22078.91668981  .00007286  00000+0  73198-3 0  9992
2 49296  87.2026 238.0284 0004808 107.7436  92.2404 14.91134274  3563
ONEWEB-0371             
1 49297U 21090U   22078.91668981  .00037365  00000+0  92938-1 0  9995
2 49297  87.9133 252.9569 0001721  90.9560  52.8487 13.19710765  3313
ONEWEB-0372             
1 49298U 21090V   22078.91668981  .00022739  00000+0  22835-2 0  9995
2 49298  87.2038 238.0335 0007058 117.7449 204.4098 14.91159553  3552
ONEWEB-0373             
1 49299U 21090W   22078.91668981 -.00926626  00000+0 -16588+0 0  9991
2 49299  87.6370 239.3793 0006832 117.5661 196.9331 14.70089032  3546
ONEWEB-0374             
1 49300U 21090X   22078.91668981 -.00936663  00000+0 -17240+0 0  9992
2 49300  87.6449 239.4511 0005734 116.0818 252.8672 14.68915272  3544
ONEWEB-0375             
1 49301U 21090Y   22078.91668981  .00026196  00000+0  28039-2 0  9993
2 49301  87.5133 239.2482 0005403 106.3485 249.8983 14.88585777  3562
ONEWEB-0376             
1 49302U 21090Z   22078.91668981  .00037657  00000+0  93663-1 0  9992
2 49302  87.9134 253.0344 0001925 103.0593  48.1470 13.19709392  3282
ONEWEB-0377             
1 49303U 21090AA  22078.91668981  .00027032  00000+0  28936-2 0  9991
2 49303  87.5112 239.3399 0003970  83.6722 337.2320 14.88583229  3564
ONEWEB-0378             
1 49304U 21090AB  22078.91668981 -.00056318  00000+0 -57245-2 0  9998
2 49304  87.1990 237.9461 0005872 102.5924 278.2567 14.91205836  3574
ONEWEB-0379             
1 49305U 21090AC  22078.91668981 -.00927542  00000+0 -17010+0 0  9998
2 49305  87.6338 239.3932 0002992 103.9954  67.2795 14.69062857  3560
ONEWEB-0380             
1 49306U 21090AD  22078.91668981  .00038044  00000+0  94621-1 0  9992
2 49306  87.9134 253.0401 0001839  85.9979  79.8986 13.19709156  3292
ONEWEB-0381             
1 49307U 21090AE  22078.91668981  .00025948  00000+0  26055-2 0  9999
2 49307  87.2072 238.1170 0004370 102.2625  66.1478 14.91162503  3541
ONEWEB-0382             
1 49308U 21090AF  22078.91668981  .00025747  00000+0  25879-2 0  9990
2 49308  87.2022 238.0024 0004883  98.2422  15.2930 14.91122205  3578
ONEWEB-0383             
1 49309U 21090AG  22078.91668981 -.00911268  00000+0 -16659+0 0  9998
2 49309  87.6414 239.3594 0005189 110.9531  14.7274 14.69130934  3575
ONEWEB-0384             
1 49310U 21090AH  22078.91668981  .00025517  00000+0  25642-2 0  9996
2 49310  87.2015 238.0066 0005380 104.9633 354.5190 14.91130919  3579
